IRIDIUM 124             
1 42810U 17039H   26065.23501835  .00000546  00000+0  15624-3 0  9996
2 42810  86.4537 333.4186 0002111  84.2503 275.8938 14.43271119460268
IRIDIUM 128             
1 42811U 17039J   26065.09128012  .00000031  00000+0  38501-5 0  9993
2 42811  86.3910  68.2507 0002069  95.4678 264.6754 14.34217857455201
IRIDIUM 121             
1 42812U 17039K   26065.25910809  .00000030  00000+0  37357-5 0  9992
2 42812  86.3968  36.6714 0002238  90.0338 270.1114 14.34217730455073
IRIDIUM 133             
1 42955U 17061A   26065.26253091  .00000026  00000+0  22869-5 0  9996
2 42955  86.3913  68.2945 0002148  90.1086 270.0356 14.34217657440023
IRIDIUM 100             
1 42956U 17061B   26064.97711380  .00000013  00000+0 -22610-5 0  9995
2 42956  86.3910  68.3349 0002141  90.3476 269.7965 14.34217568439983
IRIDIUM 122             
1 42957U 17061C   26065.08493541  .00000008  00000+0 -42714-5 0  9996
2 42957  86.3910  68.2896 0002132  88.3955 271.7485 14.34217649440004
IRIDIUM 129             
1 42958U 17061D   26065.11030858  .00000006  00000+0 -49828-5 0  9990
2 42958  86.3912  68.3451 0002536  85.9674 274.1811 14.34217806440021
IRIDIUM 119             
1 42959U 17061E   26065.07859542  .00000012  00000+0 -27519-5 0  9995
2 42959  86.3911  68.3539 0002117  85.5063 274.6375 14.34217644440032
IRIDIUM 107             
1 42960U 17061F   26065.23715921  .00000013  00000+0 -23063-5 0  9998
2 42960  86.3910  68.3078 0001876  87.3141 272.8270 14.34217787440064
IRIDIUM 132             
1 42961U 17061G   26065.10396475  .00000023  00000+0  10435-5 0  9993
2 42961  86.3911  68.3439 0002108  90.3156 269.8282 14.34217765440049
IRIDIUM 136             
1 42962U 17061H   26065.27521549  .00000000  00000+0 -69443-5 0  9993
2 42962  86.3909  68.2785 0002030  86.5954 273.5474 14.34217567440086
IRIDIUM 139             
1 42963U 17061J   26065.07225296  .00000007  00000+0 -45716-5 0  9996
2 42963  86.3911  68.4238 0001981  91.0034 269.1388 14.34217549440062
IRIDIUM 125             
1 42964U 17061K   26065.05956660  .00000000  00000+0 -71980-5 0  9996
2 42964  86.3913  68.4885 0001853  74.3659 285.7742 14.34217569440079
IRIDIUM 135             
1 43070U 17083A   26065.17323455  .00000403  00000+0  13683-3 0  9992
2 43070  86.4021   5.0616 0002189  86.2786 273.8660 14.34219737429381
IRIDIUM 138             
1 43071U 17083B   26065.26837041 -.00000008  00000+0 -98118-5 0  9995
2 43071  86.4030   4.7021 0002199  74.9755 285.1684 14.34217444429384
IRIDIUM 116             
1 43072U 17083C   26065.16688874  .00000027  00000+0  25501-5 0  9998
2 43072  86.4019   5.0513 0002091  94.3122 265.8313 14.34217671429406
IRIDIUM 130             
1 43073U 17083D   26065.20494354  .00000160  00000+0  50076-4 0  9994
2 43073  86.4029   5.3006 0001935  91.7282 268.4136 14.34217932429358
