[{"OBJECT_NAME":"IRIDIUM 124","OBJECT_ID":"2017-039H","EPOCH":"2026-03-06T05:38:25.585440","MEAN_MOTION":14.43271119,"ECCENTRICITY":0.00021118,"INCLINATION":86.4537,"RA_OF_ASC_NODE":333.4186,"ARG_OF_PERICENTER":84.2503,"MEAN_ANOMALY":275.8938,"EPHEMERIS_TYPE":0,"CLASSIFICATION_TYPE":"U","NORAD_CAT_ID":42810,"ELEMENT_SET_NO":999,"REV_AT_EPOCH":46026,"BSTAR":0.00015623714,"MEAN_MOTION_DOT":5.46e-6,"MEAN_MOTION_DDOT":0},{"OBJECT_NAME":"IRIDIUM 128","OBJECT_ID":"2017-039J","EPOCH":"2026-03-06T02:11:26.602368","MEAN_MOTION":14.34217857,"ECCENTRICITY":0.00020692,"INCLINATION":86.391,"RA_OF_ASC_NODE":68.2507,"ARG_OF_PERICENTER":95.4678,"MEAN_ANOMALY":264.6754,"EPHEMERIS_TYPE":0,"CLASSIFICATION_TYPE":"U","NORAD_CAT_ID":42811,"ELEMENT_SET_NO":999,"REV_AT_EPOCH":45520,"BSTAR":3.850071e-6,"MEAN_MOTION_DOT":3.1e-7,"MEAN_MOTION_DDOT":0},{"OBJECT_NAME":"IRIDIUM 121","OBJECT_ID":"2017-039K","EPOCH":"2026-03-06T06:13:06.938976","MEAN_MOTION":14.3421773,"ECCENTRICITY":0.00022388,"INCLINATION":86.3968,"RA_OF_ASC_NODE":36.6714,"ARG_OF_PERICENTER":90.0338,"MEAN_ANOMALY":270.1114,"EPHEMERIS_TYPE":0,"CLASSIFICATION_TYPE":"U","NORAD_CAT_ID":42812,"ELEMENT_SET_NO":999,"REV_AT_EPOCH":45507,"BSTAR":3.735749e-6,"MEAN_MOTION_DOT":3.0e-7,"MEAN_MOTION_DDOT":0},{"OBJECT_NAME":"IRIDIUM 133","OBJECT_ID":"2017-061A","EPOCH":"2026-03-06T06:18:02.670624","MEAN_MOTION":14.34217657,"ECCENTRICITY":0.00021488,"INCLINATION":86.3913,"RA_OF_ASC_NODE":68.2945,"ARG_OF_PERICENTER":90.1086,"MEAN_ANOMALY":270.0356,"EPHEMERIS_TYPE":0,"CLASSIFICATION_TYPE":"U","NORAD_CAT_ID":42955,"ELEMENT_SET_NO":999,"REV_AT_EPOCH":44002,"BSTAR":2.286934e-6,"MEAN_MOTION_DOT":2.6e-7,"MEAN_MOTION_DDOT":0},{"OBJECT_NAME":"IRIDIUM 100","OBJECT_ID":"2017-061B","EPOCH":"2026-03-05T23:27:02.632320","MEAN_MOTION":14.34217568,"ECCENTRICITY":0.0002141,"INCLINATION":86.391,"RA_OF_ASC_NODE":68.3349,"ARG_OF_PERICENTER":90.3476,"MEAN_ANOMALY":269.7965,"EPHEMERIS_TYPE":0,"CLASSIFICATION_TYPE":"U","NORAD_CAT_ID":42956,"ELEMENT_SET_NO":999,"REV_AT_EPOCH":43998,"BSTAR":-2.260979e-6,"MEAN_MOTION_DOT":1.3e-7,"MEAN_MOTION_DDOT":0},{"OBJECT_NAME":"IRIDIUM 122","OBJECT_ID":"2017-061C","EPOCH":"2026-03-06T02:02:18.419424","MEAN_MOTION":14.34217649,"ECCENTRICITY":0.00021321,"INCLINATION":86.391,"RA_OF_ASC_NODE":68.2896,"ARG_OF_PERICENTER":88.3955,"MEAN_ANOMALY":271.7485,"EPHEMERIS_TYPE":0,"CLASSIFICATION_TYPE":"U","NORAD_CAT_ID":42957,"ELEMENT_SET_NO":999,"REV_AT_EPOCH":44000,"BSTAR":-4.271443e-6,"MEAN_MOTION_DOT":8.0e-8,"MEAN_MOTION_DDOT":0},{"OBJECT_NAME":"IRIDIUM 129","OBJECT_ID":"2017-061D","EPOCH":"2026-03-06T02:38:50.661312","MEAN_MOTION":14.34217806,"ECCENTRICITY":0.00025364,"INCLINATION":86.3912,"RA_OF_ASC_NODE":68.3451,"ARG_OF_PERICENTER":85.9674,"MEAN_ANOMALY":274.1811,"EPHEMERIS_TYPE":0,"CLASSIFICATION_TYPE":"U","NORAD_CAT_ID":42958,"ELEMENT_SET_NO":999,"REV_AT_EPOCH":44002,"BSTAR":-4.982784e-6,"MEAN_MOTION_DOT":6.0e-8,"MEAN_MOTION_DDOT":0},{"OBJECT_NAME":"IRIDIUM 119","OBJECT_ID":"2017-061E","EPOCH":"2026-03-06T01:53:10.644288","MEAN_MOTION":14.34217644,"ECCENTRICITY":0.00021179,"INCLINATION":86.3911,"RA_OF_ASC_NODE":68.3539,"ARG_OF_PERICENTER":85.5063,"MEAN_ANOMALY":274.6375,"EPHEMERIS_TYPE":0,"CLASSIFICATION_TYPE":"U","NORAD_CAT_ID":42959,"ELEMENT_SET_NO":999,"REV_AT_EPOCH":44003,"BSTAR":-2.751884e-6,"MEAN_MOTION_DOT":1.2e-7,"MEAN_MOTION_DDOT":0},{"OBJECT_NAME":"IRIDIUM 107","OBJECT_ID":"2017-061F","EPOCH":"2026-03-06T05:41:30.555744","MEAN_MOTION":14.34217787,"ECCENTRICITY":0.00018766,"INCLINATION":86.391,"RA_OF_ASC_NODE":68.3078,"ARG_OF_PERICENTER":87.3141,"MEAN_ANOMALY":272.827,"EPHEMERIS_TYPE":0,"CLASSIFICATION_TYPE":"U","NORAD_CAT_ID":42960,"ELEMENT_SET_NO":999,"REV_AT_EPOCH":44006,"BSTAR":-2.306279e-6,"MEAN_MOTION_DOT":1.3e-7,"MEAN_MOTION_DDOT":0},{"OBJECT_NAME":"IRIDIUM 132","OBJECT_ID":"2017-061G","EPOCH":"2026-03-06T02:29:42.554400","MEAN_MOTION":14.34217765,"ECCENTRICITY":0.00021086,"INCLINATION":86.3911,"RA_OF_ASC_NODE":68.3439,"ARG_OF_PERICENTER":90.3156,"MEAN_ANOMALY":269.8282,"EPHEMERIS_TYPE":0,"CLASSIFICATION_TYPE":"U","NORAD_CAT_ID":42961,"ELEMENT_SET_NO":999,"REV_AT_EPOCH":44004,"BSTAR":1.043503e-6,"MEAN_MOTION_DOT":2.3e-7,"MEAN_MOTION_DDOT":0},{"OBJECT_NAME":"IRIDIUM 136","OBJECT_ID":"2017-061H","EPOCH":"2026-03-06T06:36:18.618336","MEAN_MOTION":14.34217567,"ECCENTRICITY":0.00020309,"INCLINATION":86.3909,"RA_OF_ASC_NODE":68.2785,"ARG_OF_PERICENTER":86.5954,"MEAN_ANOMALY":273.5474,"EPHEMERIS_TYPE":0,"CLASSIFICATION_TYPE":"U","NORAD_CAT_ID":42962,"ELEMENT_SET_NO":999,"REV_AT_EPOCH":44008,"BSTAR":-6.944335e-6,"MEAN_MOTION_DOT":0,"MEAN_MOTION_DDOT":0},{"OBJECT_NAME":"IRIDIUM 139","OBJECT_ID":"2017-061J","EPOCH":"2026-03-06T01:44:02.655744","MEAN_MOTION":14.34217549,"ECCENTRICITY":0.00019818,"INCLINATION":86.3911,"RA_OF_ASC_NODE":68.4238,"ARG_OF_PERICENTER":91.0034,"MEAN_ANOMALY":269.1388,"EPHEMERIS_TYPE":0,"CLASSIFICATION_TYPE":"U","NORAD_CAT_ID":42963,"ELEMENT_SET_NO":999,"REV_AT_EPOCH":44006,"BSTAR":-4.571615e-6,"MEAN_MOTION_DOT":7.0e-8,"MEAN_MOTION_DDOT":0},{"OBJECT_NAME":"IRIDIUM 125","OBJECT_ID":"2017-061K","EPOCH":"2026-03-06T01:25:46.554240","MEAN_MOTION":14.34217569,"ECCENTRICITY":0.00018535,"INCLINATION":86.3913,"RA_OF_ASC_NODE":68.4885,"ARG_OF_PERICENTER":74.3659,"MEAN_ANOMALY":285.7742,"EPHEMERIS_TYPE":0,"CLASSIFICATION_TYPE":"U","NORAD_CAT_ID":42964,"ELEMENT_SET_NO":999,"REV_AT_EPOCH":44007,"BSTAR":-7.198001e-6,"MEAN_MOTION_DOT":0,"MEAN_MOTION_DDOT":0},{"OBJECT_NAME":"IRIDIUM 135","OBJECT_ID":"2017-083A","EPOCH":"2026-03-06T04:09:27.465120","MEAN_MOTION":14.34219737,"ECCENTRICITY":0.00021897,"INCLINATION":86.4021,"RA_OF_ASC_NODE":5.0616,"ARG_OF_PERICENTER":86.2786,"MEAN_ANOMALY":273.866,"EPHEMERIS_TYPE":0,"CLASSIFICATION_TYPE":"U","NORAD_CAT_ID":43070,"ELEMENT_SET_NO":999,"REV_AT_EPOCH":42938,"BSTAR":0.00013683296,"MEAN_MOTION_DOT":4.03e-6,"MEAN_MOTION_DDOT":0},{"OBJECT_NAME":"IRIDIUM 138","OBJECT_ID":"2017-083B","EPOCH":"2026-03-06T06:26:27.203424","MEAN_MOTION":14.34217444,"ECCENTRICITY":0.00021997,"INCLINATION":86.403,"RA_OF_ASC_NODE":4.7021,"ARG_OF_PERICENTER":74.9755,"MEAN_ANOMALY":285.1684,"EPHEMERIS_TYPE":0,"CLASSIFICATION_TYPE":"U","NORAD_CAT_ID":43071,"ELEMENT_SET_NO":999,"REV_AT_EPOCH":42938,"BSTAR":-9.811767e-6,"MEAN_MOTION_DOT":-8.0e-8,"MEAN_MOTION_DDOT":0},{"OBJECT_NAME":"IRIDIUM 116","OBJECT_ID":"2017-083C","EPOCH":"2026-03-06T04:00:19.187136","MEAN_MOTION":14.34217671,"ECCENTRICITY":0.00020913,"INCLINATION":86.4019,"RA_OF_ASC_NODE":5.0513,"ARG_OF_PERICENTER":94.3122,"MEAN_ANOMALY":265.8313,"EPHEMERIS_TYPE":0,"CLASSIFICATION_TYPE":"U","NORAD_CAT_ID":43072,"ELEMENT_SET_NO":999,"REV_AT_EPOCH":42940,"BSTAR":2.550143e-6,"MEAN_MOTION_DOT":2.7e-7,"MEAN_MOTION_DDOT":0},{"OBJECT_NAME":"IRIDIUM 130","OBJECT_ID":"2017-083D","EPOCH":"2026-03-06T04:55:07.121856","MEAN_MOTION":14.34217932,"ECCENTRICITY":0.00019358,"INCLINATION":86.4029,"RA_OF_ASC_NODE":5.3006,"ARG_OF_PERICENTER":91.7282,"MEAN_ANOMALY":268.4136,"EPHEMERIS_TYPE":0,"CLASSIFICATION_TYPE":"U","NORAD_CAT_ID":43073,"ELEMENT_SET_NO":999,"REV_AT_EPOCH":42935,"BSTAR":5.0075843e-5,"MEAN_MOTION_DOT":1.6e-6,"MEAN_MOTION_DDOT":0}]
